{
    "links": {
        "self": "http://www.neowsapp.com/rest/v1/neo/3776015?api_key=iIulBulltgU6a56xZRHN4H3l9WmuAYTsLGpBGhQ2"
    },
    "id": "3776015",
    "neo_reference_id": "3776015",
    "name": "(2017 MA3)",
    "designation": "2017 MA3",
    "nasa_jpl_url": "http://ssd.jpl.nasa.gov/sbdb.cgi?sstr=3776015",
    "absolute_magnitude_h": 26.9,
    "estimated_diameter": {
        "kilometers": {
            "estimated_diameter_min": 0.0110803882,
            "estimated_diameter_max": 0.0247765013
        },
        "meters": {
            "estimated_diameter_min": 11.0803882126,
            "estimated_diameter_max": 24.7765012606
        },
        "miles": {
            "estimated_diameter_min": 0.0068850319,
            "estimated_diameter_max": 0.0153953994
        },
        "feet": {
            "estimated_diameter_min": 36.3529808636,
            "estimated_diameter_max": 81.2877363957
        }
    },
    "is_potentially_hazardous_asteroid": false,
    "close_approach_data": [
        {
            "close_approach_date": "2017-06-27",
            "close_approach_date_full": "2017-Jun-27 07:37",
            "epoch_date_close_approach": 1498549020000,
            "relative_velocity": {
                "kilometers_per_second": "9.2822041812",
                "kilometers_per_hour": "33415.9350521842",
                "miles_per_hour": "20763.3625328419"
            },
            "miss_distance": {
                "astronomical": "0.0082889368",
                "lunar": "3.2243964152",
                "kilometers": "1240007.289844616",
                "miles": "770504.8011270608"
            },
            "orbiting_body": "Earth"
        }
    ],
    "orbital_data": {
        "orbit_id": "4",
        "orbit_determination_date": "2020-10-31 06:32:53",
        "first_observation_date": "2017-06-23",
        "last_observation_date": "2017-06-27",
        "data_arc_in_days": 4,
        "observations_used": 39,
        "orbit_uncertainty": "7",
        "minimum_orbit_intersection": ".00433847",
        "jupiter_tisserand_invariant": "3.312",
        "epoch_osculation": "2459000.5",
        "eccentricity": ".5772850613649066",
        "semi_major_axis": "2.346192118504505",
        "inclination": "4.001359337526456",
        "ascending_node_longitude": "100.6967841366405",
        "orbital_period": "1312.634407945814",
        "perihelion_distance": ".9917704573997717",
        "perihelion_argument": "196.9723402493914",
        "aphelion_distance": "3.700613779609239",
        "perihelion_time": "2459262.831564061913",
        "mean_anomaly": "288.0535673218562",
        "mean_motion": ".2742576286441981",
        "equinox": "J2000",
        "orbit_class": {
            "orbit_class_type": "APO",
            "orbit_class_description": "Near-Earth asteroid orbits which cross the Earth’s orbit similar to that of 1862 Apollo",
            "orbit_class_range": "a (semi-major axis) > 1.0 AU; q (perihelion) < 1.017 AU"
        }
    },
    "is_sentry_object": false
}